ONEWEB-0267             
1 48985U 21060U   25069.25531404  .00000009  00000+0 -95076-5 0  9990
2 48985  87.9104 321.2507 0002012  79.9377 280.1981 13.16596819178545
ONEWEB-0268             
1 48986U 21060V   25069.22363928  .00000177  00000+0  42929-3 0  9994
2 48986  87.9101 321.2640 0001759  85.3076 274.8256 13.16596770178805
ONEWEB-0269             
1 48987U 21060W   25069.20465985  .00000131  00000+0  30879-3 0  9990
2 48987  87.9104 321.3011 0001722  82.5356 277.5970 13.16595381178576
ONEWEB-0270             
1 48988U 21060X   25069.22207329  .00000172  00000+0  41555-3 0  9997
2 48988  87.9100 321.2692 0002108  74.5845 285.5518 13.16593278178615
ONEWEB-0271             
1 48989U 21060Y   25069.20940842  .00000122  00000+0  28427-3 0  9998
2 48989  87.9100 321.2515 0002038  79.6166 280.5195 13.16595487178614
ONEWEB-0272             
1 48990U 21060Z   25069.15557527  .00000221  00000+0  54483-3 0  9999
2 48990  87.9101 321.2940 0001978  80.2174 279.9180 13.16596141178555
ONEWEB-0273             
1 48991U 21060AA  25069.25372912 -.00000038  00000+0 -13340-3 0  9999
2 48991  87.9104 321.2594 0001900  74.6842 285.4499 13.16592620178540
ONEWEB-0274             
1 48992U 21060AB  25069.20307737  .00000117  00000+0  27334-3 0  9992
2 48992  87.9109 321.3013 0001965  92.4706 267.6650 13.16595425178571
